STARLINK-2568           
1 48406U 21038BF  25283.31724658  .00000015  00000+0  19908-4 0  9998
2 48406  53.0553 296.6669 0001325  89.2854 270.8287 15.06398606244644
STARLINK-2595           
1 48407U 21038BG  25283.16772823  .00108713  00000+0  15592-2 0  9996
2 48407  53.0407 234.4238 0004556  98.4692 261.6835 15.55320427245509
STARLINK-2592           
1 48408U 21038BH  25283.30988741  .00000653  00000+0  62764-4 0  9990
2 48408  53.0550 296.6965 0001527  94.6715 265.4448 15.06391728244638
STARLINK-2563           
1 48410U 21038BK  25283.13893696  .00003833  00000+0  27597-3 0  9995
2 48410  53.0537 252.4649 0001548 111.4938 248.6217 15.06413373245250
STARLINK-2505           
1 48411U 21038BL  25283.15599583 -.00000596  00000+0 -21153-4 0  9994
2 48411  53.0544 247.3893 0001472  87.7393 272.3765 15.06393165245325
STARLINK-2581           
1 48412U 21038BM  25283.17447235  .00000033  00000+0  21110-4 0  9990
2 48412  53.0557 247.7442 0001614  92.5353 267.5821 15.06399605245326
STARLINK-2461           
1 48428U 21040A   25282.98320391 -.00002251  00000+0 -13226-3 0  9995
2 48428  53.0524 143.1658 0001265  89.0382 271.0752 15.06410897243845
STARLINK-2700           
1 48431U 21040D   25282.93203421  .00002341  00000+0  17593-3 0  9997
2 48431  53.0532 108.3957 0001669  70.7617 289.3553 15.06409047244329
STARLINK-2680           
1 48432U 21040E   25282.91322988  .00001466  00000+0  11727-3 0  9996
2 48432  53.0536 103.8758 0001550  87.0825 273.0341 15.06401917244383
STARLINK-2699           
1 48433U 21040F   25282.92564362  .00002476  00000+0  18501-3 0  9991
2 48433  53.0531 108.7042 0001433  89.7411 270.3743 15.06404935244311
STARLINK-2692           
1 48434U 21040G   25283.22193761 -.00000207  00000+0  49903-5 0  9990
2 48434  53.0554 112.6049 0001603  98.3190 261.7981 15.06386409244297
STARLINK-2633           
1 48435U 21040H   25282.96293108  .00003594  00000+0  26012-3 0  9992
2 48435  53.0539 123.2661 0001223  73.3464 286.7659 15.06386281244112
STARLINK-2639           
1 48436U 21040J   25282.95233767  .00002027  00000+0  15489-3 0  9993
2 48436  53.0525 138.3042 0001255  88.4364 271.6769 15.06406370243902
STARLINK-2642           
1 48437U 21040K   25283.00302342  .00012416  00000+0  85052-3 0  9993
2 48437  53.0547 148.0770 0001541  90.7610 269.3555 15.06420370243779
STARLINK-2640           
1 48438U 21040L   25282.97449185  .00004541  00000+0  32357-3 0  9996
2 48438  53.0520 138.4716 0001445 101.0746 259.0406 15.06396959243904
STARLINK-2583           
1 48439U 21040M   25283.01131185 -.00001109  00000+0 -55566-4 0  9998
2 48439  53.0492 138.0420 0002303  80.2895 279.8354 15.06393562243918
