[{"OBJECT_NAME":"STARLINK-2568","OBJECT_ID":"2021-038BF","EPOCH":"2025-10-10T07:36:50.104512","MEAN_MOTION":15.06398606,"ECCENTRICITY":0.00013259,"INCLINATION":53.0553,"RA_OF_ASC_NODE":296.6669,"ARG_OF_PERICENTER":89.2854,"MEAN_ANOMALY":270.8287,"EPHEMERIS_TYPE":0,"CLASSIFICATION_TYPE":"U","NORAD_CAT_ID":48406,"ELEMENT_SET_NO":999,"REV_AT_EPOCH":24464,"BSTAR":1.9908445e-5,"MEAN_MOTION_DOT":1.5e-7,"MEAN_MOTION_DDOT":0},{"OBJECT_NAME":"STARLINK-2595","OBJECT_ID":"2021-038BG","EPOCH":"2025-10-10T04:01:31.719072","MEAN_MOTION":15.55320427,"ECCENTRICITY":0.00045564,"INCLINATION":53.0407,"RA_OF_ASC_NODE":234.4238,"ARG_OF_PERICENTER":98.4692,"MEAN_ANOMALY":261.6835,"EPHEMERIS_TYPE":0,"CLASSIFICATION_TYPE":"U","NORAD_CAT_ID":48407,"ELEMENT_SET_NO":999,"REV_AT_EPOCH":24550,"BSTAR":0.0015591526,"MEAN_MOTION_DOT":0.00108713,"MEAN_MOTION_DDOT":0},{"OBJECT_NAME":"STARLINK-2592","OBJECT_ID":"2021-038BH","EPOCH":"2025-10-10T07:26:14.272224","MEAN_MOTION":15.06391728,"ECCENTRICITY":0.00015273,"INCLINATION":53.055,"RA_OF_ASC_NODE":296.6965,"ARG_OF_PERICENTER":94.6715,"MEAN_ANOMALY":265.4448,"EPHEMERIS_TYPE":0,"CLASSIFICATION_TYPE":"U","NORAD_CAT_ID":48408,"ELEMENT_SET_NO":999,"REV_AT_EPOCH":24463,"BSTAR":6.2764062e-5,"MEAN_MOTION_DOT":6.53e-6,"MEAN_MOTION_DDOT":0},{"OBJECT_NAME":"STARLINK-2563","OBJECT_ID":"2021-038BK","EPOCH":"2025-10-10T03:20:04.153344","MEAN_MOTION":15.06413373,"ECCENTRICITY":0.00015481,"INCLINATION":53.0537,"RA_OF_ASC_NODE":252.4649,"ARG_OF_PERICENTER":111.4938,"MEAN_ANOMALY":248.6217,"EPHEMERIS_TYPE":0,"CLASSIFICATION_TYPE":"U","NORAD_CAT_ID":48410,"ELEMENT_SET_NO":999,"REV_AT_EPOCH":24525,"BSTAR":0.00027597185,"MEAN_MOTION_DOT":3.833e-5,"MEAN_MOTION_DDOT":0},{"OBJECT_NAME":"STARLINK-2505","OBJECT_ID":"2021-038BL","EPOCH":"2025-10-10T03:44:38.039712","MEAN_MOTION":15.06393165,"ECCENTRICITY":0.00014726,"INCLINATION":53.0544,"RA_OF_ASC_NODE":247.3893,"ARG_OF_PERICENTER":87.7393,"MEAN_ANOMALY":272.3765,"EPHEMERIS_TYPE":0,"CLASSIFICATION_TYPE":"U","NORAD_CAT_ID":48411,"ELEMENT_SET_NO":999,"REV_AT_EPOCH":24532,"BSTAR":-2.1152719e-5,"MEAN_MOTION_DOT":-5.96e-6,"MEAN_MOTION_DDOT":0},{"OBJECT_NAME":"STARLINK-2581","OBJECT_ID":"2021-038BM","EPOCH":"2025-10-10T04:11:14.411040","MEAN_MOTION":15.06399605,"ECCENTRICITY":0.00016146,"INCLINATION":53.0557,"RA_OF_ASC_NODE":247.7442,"ARG_OF_PERICENTER":92.5353,"MEAN_ANOMALY":267.5821,"EPHEMERIS_TYPE":0,"CLASSIFICATION_TYPE":"U","NORAD_CAT_ID":48412,"ELEMENT_SET_NO":999,"REV_AT_EPOCH":24532,"BSTAR":2.1110332e-5,"MEAN_MOTION_DOT":3.3e-7,"MEAN_MOTION_DDOT":0},{"OBJECT_NAME":"STARLINK-2461","OBJECT_ID":"2021-040A","EPOCH":"2025-10-09T23:35:48.817824","MEAN_MOTION":15.06410897,"ECCENTRICITY":0.00012656,"INCLINATION":53.0524,"RA_OF_ASC_NODE":143.1658,"ARG_OF_PERICENTER":89.0382,"MEAN_ANOMALY":271.0752,"EPHEMERIS_TYPE":0,"CLASSIFICATION_TYPE":"U","NORAD_CAT_ID":48428,"ELEMENT_SET_NO":999,"REV_AT_EPOCH":24384,"BSTAR":-0.00013225884,"MEAN_MOTION_DOT":-2.251e-5,"MEAN_MOTION_DDOT":0},{"OBJECT_NAME":"STARLINK-2700","OBJECT_ID":"2021-040D","EPOCH":"2025-10-09T22:22:07.755744","MEAN_MOTION":15.06409047,"ECCENTRICITY":0.0001669,"INCLINATION":53.0532,"RA_OF_ASC_NODE":108.3957,"ARG_OF_PERICENTER":70.7617,"MEAN_ANOMALY":289.3553,"EPHEMERIS_TYPE":0,"CLASSIFICATION_TYPE":"U","NORAD_CAT_ID":48431,"ELEMENT_SET_NO":999,"REV_AT_EPOCH":24432,"BSTAR":0.00017593,"MEAN_MOTION_DOT":2.341e-5,"MEAN_MOTION_DDOT":0},{"OBJECT_NAME":"STARLINK-2680","OBJECT_ID":"2021-040E","EPOCH":"2025-10-09T21:55:03.061632","MEAN_MOTION":15.06401917,"ECCENTRICITY":0.000155,"INCLINATION":53.0536,"RA_OF_ASC_NODE":103.8758,"ARG_OF_PERICENTER":87.0825,"MEAN_ANOMALY":273.0341,"EPHEMERIS_TYPE":0,"CLASSIFICATION_TYPE":"U","NORAD_CAT_ID":48432,"ELEMENT_SET_NO":999,"REV_AT_EPOCH":24438,"BSTAR":0.00011727,"MEAN_MOTION_DOT":1.466e-5,"MEAN_MOTION_DDOT":0},{"OBJECT_NAME":"STARLINK-2699","OBJECT_ID":"2021-040F","EPOCH":"2025-10-09T22:12:55.608768","MEAN_MOTION":15.06404935,"ECCENTRICITY":0.0001433,"INCLINATION":53.0531,"RA_OF_ASC_NODE":108.7042,"ARG_OF_PERICENTER":89.7411,"MEAN_ANOMALY":270.3743,"EPHEMERIS_TYPE":0,"CLASSIFICATION_TYPE":"U","NORAD_CAT_ID":48433,"ELEMENT_SET_NO":999,"REV_AT_EPOCH":24431,"BSTAR":0.00018501,"MEAN_MOTION_DOT":2.476e-5,"MEAN_MOTION_DDOT":0},{"OBJECT_NAME":"STARLINK-2692","OBJECT_ID":"2021-040G","EPOCH":"2025-10-10T05:19:35.409504","MEAN_MOTION":15.06386409,"ECCENTRICITY":0.00016034,"INCLINATION":53.0554,"RA_OF_ASC_NODE":112.6049,"ARG_OF_PERICENTER":98.319,"MEAN_ANOMALY":261.7981,"EPHEMERIS_TYPE":0,"CLASSIFICATION_TYPE":"U","NORAD_CAT_ID":48434,"ELEMENT_SET_NO":999,"REV_AT_EPOCH":24429,"BSTAR":4.990271e-6,"MEAN_MOTION_DOT":-2.07e-6,"MEAN_MOTION_DDOT":0},{"OBJECT_NAME":"STARLINK-2633","OBJECT_ID":"2021-040H","EPOCH":"2025-10-09T23:06:37.245312","MEAN_MOTION":15.06386281,"ECCENTRICITY":0.0001223,"INCLINATION":53.0539,"RA_OF_ASC_NODE":123.2661,"ARG_OF_PERICENTER":73.3464,"MEAN_ANOMALY":286.7659,"EPHEMERIS_TYPE":0,"CLASSIFICATION_TYPE":"U","NORAD_CAT_ID":48435,"ELEMENT_SET_NO":999,"REV_AT_EPOCH":24411,"BSTAR":0.00026012,"MEAN_MOTION_DOT":3.594e-5,"MEAN_MOTION_DDOT":0},{"OBJECT_NAME":"STARLINK-2639","OBJECT_ID":"2021-040J","EPOCH":"2025-10-09T22:51:21.974688","MEAN_MOTION":15.0640637,"ECCENTRICITY":0.00012555,"INCLINATION":53.0525,"RA_OF_ASC_NODE":138.3042,"ARG_OF_PERICENTER":88.4364,"MEAN_ANOMALY":271.6769,"EPHEMERIS_TYPE":0,"CLASSIFICATION_TYPE":"U","NORAD_CAT_ID":48436,"ELEMENT_SET_NO":999,"REV_AT_EPOCH":24390,"BSTAR":0.00015488558,"MEAN_MOTION_DOT":2.027e-5,"MEAN_MOTION_DDOT":0},{"OBJECT_NAME":"STARLINK-2642","OBJECT_ID":"2021-040K","EPOCH":"2025-10-10T00:04:21.223488","MEAN_MOTION":15.0642037,"ECCENTRICITY":0.0001541,"INCLINATION":53.0547,"RA_OF_ASC_NODE":148.077,"ARG_OF_PERICENTER":90.761,"MEAN_ANOMALY":269.3555,"EPHEMERIS_TYPE":0,"CLASSIFICATION_TYPE":"U","NORAD_CAT_ID":48437,"ELEMENT_SET_NO":999,"REV_AT_EPOCH":24377,"BSTAR":0.00085051797,"MEAN_MOTION_DOT":0.00012416,"MEAN_MOTION_DDOT":0},{"OBJECT_NAME":"STARLINK-2640","OBJECT_ID":"2021-040L","EPOCH":"2025-10-09T23:23:16.095840","MEAN_MOTION":15.06396959,"ECCENTRICITY":0.00014455,"INCLINATION":53.052,"RA_OF_ASC_NODE":138.4716,"ARG_OF_PERICENTER":101.0746,"MEAN_ANOMALY":259.0406,"EPHEMERIS_TYPE":0,"CLASSIFICATION_TYPE":"U","NORAD_CAT_ID":48438,"ELEMENT_SET_NO":999,"REV_AT_EPOCH":24390,"BSTAR":0.0003235699,"MEAN_MOTION_DOT":4.541e-5,"MEAN_MOTION_DDOT":0},{"OBJECT_NAME":"STARLINK-2583","OBJECT_ID":"2021-040M","EPOCH":"2025-10-10T00:16:17.343840","MEAN_MOTION":15.06393562,"ECCENTRICITY":0.00023039,"INCLINATION":53.0492,"RA_OF_ASC_NODE":138.042,"ARG_OF_PERICENTER":80.2895,"MEAN_ANOMALY":279.8354,"EPHEMERIS_TYPE":0,"CLASSIFICATION_TYPE":"U","NORAD_CAT_ID":48439,"ELEMENT_SET_NO":999,"REV_AT_EPOCH":24391,"BSTAR":-5.5565768e-5,"MEAN_MOTION_DOT":-1.109e-5,"MEAN_MOTION_DDOT":0}]
